{
  "type": "FeatureCollection",
  "features": [
    {
      "type": "Feature",
      "properties": {
        "norad_id": 36828,
        "name": "BEIDOU-2 IGSO-1 (C06)",
        "group": "beidou",
        "lat": 43.8954083700863,
        "lon": -59.14399435919177,
        "alt_km": 35795.64975657811,
        "timestamp": "2025-12-02T07:10:09.380222+00:00",
        "meta_object_name": "BEIDOU-2 IGSO-1 (C06)",
        "meta_object_id": "2010-036A",
        "meta_epoch": "2025-12-01T10:54:26.819712",
        "meta_mean_motion": 1.00279202,
        "meta_eccentricity": 0.00512823,
        "meta_inclination": 54.2832,
        "meta_ra_of_asc_node": 164.751,
        "meta_arg_of_pericenter": 215.7518,
        "meta_mean_anomaly": 321.3962,
        "meta_ephemeris_type": 0,
        "meta_classification_type": "U",
        "meta_norad_cat_id": 36828,
        "meta_element_set_no": 999,
        "meta_rev_at_epoch": 5611,
        "meta_bstar": 0,
        "meta_mean_motion_dot": -1.7e-07,
        "meta_mean_motion_ddot": 0,
        "tle_line1": "1 36828U 10036A   25335.45447708 -.00000017  00000+0  00000+0 0  9991",
        "tle_line2": "2 36828  54.2832 164.7510 0051282 215.7518 321.3962  1.00279202 56116"
      },
      "geometry": {
        "type": "Point",
        "coordinates": [
          -59.14399435919177,
          43.8954083700863
        ]
      }
    },
    {
      "type": "Feature",
      "properties": {
        "norad_id": 37210,
        "name": "BEIDOU-2 G4 (C04)",
        "group": "beidou",
        "lat": -3.147252366670455,
        "lon": -20.886276983741286,
        "alt_km": 35779.742842974905,
        "timestamp": "2025-12-02T07:10:09.380247+00:00",
        "meta_object_name": "BEIDOU-2 G4 (C04)",
        "meta_object_id": "2010-057A",
        "meta_epoch": "2025-12-01T18:00:01.061856",
        "meta_mean_motion": 1.00271457,
        "meta_eccentricity": 0.001081,
        "meta_inclination": 3.155,
        "meta_ra_of_asc_node": 69.9639,
        "meta_arg_of_pericenter": 187.7955,
        "meta_mean_anomaly": 243.1811,
        "meta_ephemeris_type": 0,
        "meta_classification_type": "U",
        "meta_norad_cat_id": 37210,
        "meta_element_set_no": 999,
        "meta_rev_at_epoch": 5531,
        "meta_bstar": 0,
        "meta_mean_motion_dot": -9.1e-07,
        "meta_mean_motion_ddot": 0,
        "tle_line1": "1 37210U 10057A   25335.75001229 -.00000091  00000+0  00000+0 0  9999",
        "tle_line2": "2 37210   3.1550  69.9639 0010810 187.7955 243.1811  1.00271457 55314"
      },
      "geometry": {
        "type": "Point",
        "coordinates": [
          -20.886276983741286,
          -3.147252366670455
        ]
      }
    },
    {
      "type": "Feature",
      "properties": {
        "norad_id": 37256,
        "name": "BEIDOU-2 IGSO-2 (C07)",
        "group": "beidou",
        "lat": 8.903941201283352,
        "lon": -77.63780321602896,
        "alt_km": 35969.64202934567,
        "timestamp": "2025-12-02T07:10:09.380263+00:00",
        "meta_object_name": "BEIDOU-2 IGSO-2 (C07)",
        "meta_object_id": "2010-068A",
        "meta_epoch": "2025-11-30T14:15:56.539296",
        "meta_mean_motion": 1.00290004,
        "meta_eccentricity": 0.0049401,
        "meta_inclination": 47.9109,
        "meta_ra_of_asc_node": 274.301,
        "meta_arg_of_pericenter": 216.3834,
        "meta_mean_anomaly": 260.0417,
        "meta_ephemeris_type": 0,
        "meta_classification_type": "U",
        "meta_norad_cat_id": 37256,
        "meta_element_set_no": 999,
        "meta_rev_at_epoch": 5480,
        "meta_bstar": 0,
        "meta_mean_motion_dot": -2.25e-06,
        "meta_mean_motion_ddot": 0,
        "tle_line1": "1 37256U 10068A   25334.59440439 -.00000225  00000+0  00000+0 0  9991",
        "tle_line2": "2 37256  47.9109 274.3010 0049401 216.3834 260.0417  1.00290004 54800"
      },
      "geometry": {
        "type": "Point",
        "coordinates": [
          -77.63780321602896,
          8.903941201283352
        ]
      }
    },
    {
      "type": "Feature",
      "properties": {
        "norad_id": 37384,
        "name": "BEIDOU-2 IGSO-3 (C08)",
        "group": "beidou",
        "lat": -53.24427342024575,
        "lon": -92.96314734877059,
        "alt_km": 35713.65015746273,
        "timestamp": "2025-12-02T07:10:09.380276+00:00",
        "meta_object_name": "BEIDOU-2 IGSO-3 (C08)",
        "meta_object_id": "2011-013A",
        "meta_epoch": "2025-11-29T21:04:05.094336",
        "meta_mean_motion": 1.00273417,
        "meta_eccentricity": 0.00356655,
        "meta_inclination": 62.1255,
        "meta_ra_of_asc_node": 42.0418,
        "meta_arg_of_pericenter": 186.0158,
        "meta_mean_anomaly": 264.7363,
        "meta_ephemeris_type": 0,
        "meta_classification_type": "U",
        "meta_norad_cat_id": 37384,
        "meta_element_set_no": 999,
        "meta_rev_at_epoch": 5366,
        "meta_bstar": 0,
        "meta_mean_motion_dot": -1.94e-06,
        "meta_mean_motion_ddot": 0,
        "tle_line1": "1 37384U 11013A   25333.87783674 -.00000194  00000+0  00000+0 0  9990",
        "tle_line2": "2 37384  62.1255  42.0418 0035665 186.0158 264.7363  1.00273417 53667"
      },
      "geometry": {
        "type": "Point",
        "coordinates": [
          -92.96314734877059,
          -53.24427342024575
        ]
      }
    },
    {
      "type": "Feature",
      "properties": {
        "norad_id": 37763,
        "name": "BEIDOU-2 IGSO-4 (C09)",
        "group": "beidou",
        "lat": 52.17646870493294,
        "lon": -79.17573653536553,
        "alt_km": 36142.25919029986,
        "timestamp": "2025-12-02T07:10:09.380290+00:00",
        "meta_object_name": "BEIDOU-2 IGSO-4 (C09)",
        "meta_object_id": "2011-038A",
        "meta_epoch": "2025-11-28T12:37:32.473920",
        "meta_mean_motion": 1.00284857,
        "meta_eccentricity": 0.01486323,
        "meta_inclination": 54.5801,
        "meta_ra_of_asc_node": 167.4746,
        "meta_arg_of_pericenter": 230.1967,
        "meta_mean_anomaly": 313.2933,
        "meta_ephemeris_type": 0,
        "meta_classification_type": "U",
        "meta_norad_cat_id": 37763,
        "meta_element_set_no": 999,
        "meta_rev_at_epoch": 5263,
        "meta_bstar": 0,
        "meta_mean_motion_dot": 8.5e-07,
        "meta_mean_motion_ddot": 0,
        "tle_line1": "1 37763U 11038A   25332.52607030  .00000085  00000+0  00000+0 0  9998",
        "tle_line2": "2 37763  54.5801 167.4746 0148632 230.1967 313.2933  1.00284857 52633"
      },
      "geometry": {
        "type": "Point",
        "coordinates": [
          -79.17573653536553,
          52.17646870493294
        ]
      }
    },
    {
      "type": "Feature",
      "properties": {
        "norad_id": 37948,
        "name": "BEIDOU-2 IGSO-5 (C10)",
        "group": "beidou",
        "lat": -1.348512404299992,
        "lon": -87.26701655635561,
        "alt_km": 36113.53133156437,
        "timestamp": "2025-12-02T07:10:09.380302+00:00",
        "meta_object_name": "BEIDOU-2 IGSO-5 (C10)",
        "meta_object_id": "2011-073A",
        "meta_epoch": "2025-12-01T19:23:12.254208",
        "meta_mean_motion": 1.00292861,
        "meta_eccentricity": 0.0110883,
        "meta_inclination": 48.0424,
        "meta_ra_of_asc_node": 273.9939,
        "meta_arg_of_pericenter": 222.2372,
        "meta_mean_anomaly": 317.7789,
        "meta_ephemeris_type": 0,
        "meta_classification_type": "U",
        "meta_norad_cat_id": 37948,
        "meta_element_set_no": 999,
        "meta_rev_at_epoch": 5115,
        "meta_bstar": 0,
        "meta_mean_motion_dot": -1.75e-06,
        "meta_mean_motion_ddot": 0,
        "tle_line1": "1 37948U 11073A   25335.80778072 -.00000175  00000+0  00000+0 0  9992",
        "tle_line2": "2 37948  48.0424 273.9939 0110883 222.2372 317.7789  1.00292861 51151"
      },
      "geometry": {
        "type": "Point",
        "coordinates": [
          -87.26701655635561,
          -1.348512404299992
        ]
      }
    },
    {
      "type": "Feature",
      "properties": {
        "norad_id": 38091,
        "name": "BEIDOU-2 G5 (C05)",
        "group": "beidou",
        "lat": 0.681438614778479,
        "lon": -122.48049626372958,
        "alt_km": 35758.90623290933,
        "timestamp": "2025-12-02T07:10:09.380314+00:00",
        "meta_object_name": "BEIDOU-2 G5 (C05)",
        "meta_object_id": "2012-008A",
        "meta_epoch": "2025-12-01T20:45:38.742336",
        "meta_mean_motion": 1.00271896,
        "meta_eccentricity": 0.0012191,
        "meta_inclination": 3.0798,
        "meta_ra_of_asc_node": 70.7388,
        "meta_arg_of_pericenter": 225.3195,
        "meta_mean_anomaly": 145.0297,
        "meta_ephemeris_type": 0,
        "meta_classification_type": "U",
        "meta_norad_cat_id": 38091,
        "meta_element_set_no": 999,
        "meta_rev_at_epoch": 5039,
        "meta_bstar": 0,
        "meta_mean_motion_dot": 7.8e-07,
        "meta_mean_motion_ddot": 0,
        "tle_line1": "1 38091U 12008A   25335.86503174  .00000078  00000+0  00000+0 0  9997",
        "tle_line2": "2 38091   3.0798  70.7388 0012191 225.3195 145.0297  1.00271896 50393"
      },
      "geometry": {
        "type": "Point",
        "coordinates": [
          -122.48049626372958,
          0.681438614778479
        ]
      }
    }
  ]
}